[{"OBJECT_NAME":"STARLINK-11292 [DTC]","OBJECT_ID":"2024-171D","EPOCH":"2026-03-09T14:17:19.530816","MEAN_MOTION":15.69698144,"ECCENTRICITY":0.0001102,"INCLINATION":53.1598,"RA_OF_ASC_NODE":176.7479,"ARG_OF_PERICENTER":77.3975,"MEAN_ANOMALY":282.7166,"EPHEMERIS_TYPE":0,"CLASSIFICATION_TYPE":"U","NORAD_CAT_ID":61203,"ELEMENT_SET_NO":999,"REV_AT_EPOCH":8438,"BSTAR":-1.8574e-5,"MEAN_MOTION_DOT":-2.837e-5,"MEAN_MOTION_DDOT":0},{"OBJECT_NAME":"CZ-2D DEB","OBJECT_ID":"2005-024K","EPOCH":"2026-03-07T20:58:14.771712","MEAN_MOTION":15.70813446,"ECCENTRICITY":0.0005756,"INCLINATION":97.1809,"RA_OF_ASC_NODE":100.1703,"ARG_OF_PERICENTER":144.4044,"MEAN_ANOMALY":215.7604,"EPHEMERIS_TYPE":0,"CLASSIFICATION_TYPE":"U","NORAD_CAT_ID":35271,"ELEMENT_SET_NO":999,"REV_AT_EPOCH":8871,"BSTAR":0.00070506615,"MEAN_MOTION_DOT":0.00088213,"MEAN_MOTION_DDOT":0}]
